[{"OBJECT_NAME":"LEMU NGE","OBJECT_ID":"2024-149BS","EPOCH":"2026-03-04T03:37:12.708192","MEAN_MOTION":14.94461096,"ECCENTRICITY":0.0001822,"INCLINATION":97.6914,"RA_OF_ASC_NODE":140.2396,"ARG_OF_PERICENTER":64.7225,"MEAN_ANOMALY":295.4184,"EPHEMERIS_TYPE":0,"CLASSIFICATION_TYPE":"U","NORAD_CAT_ID":60532,"ELEMENT_SET_NO":999,"REV_AT_EPOCH":8426,"BSTAR":0.00039312,"MEAN_MOTION_DOT":4.184e-5,"MEAN_MOTION_DDOT":0},{"OBJECT_NAME":"LEMUR-2-STELLA","OBJECT_ID":"2024-149BT","EPOCH":"2026-03-04T03:47:18.127680","MEAN_MOTION":15.09284125,"ECCENTRICITY":0.0001621,"INCLINATION":97.6789,"RA_OF_ASC_NODE":145.337,"ARG_OF_PERICENTER":95.3072,"MEAN_ANOMALY":264.8342,"EPHEMERIS_TYPE":0,"CLASSIFICATION_TYPE":"U","NORAD_CAT_ID":60533,"ELEMENT_SET_NO":999,"REV_AT_EPOCH":8464,"BSTAR":0.0012764,"MEAN_MOTION_DOT":0.00020314,"MEAN_MOTION_DDOT":0},{"OBJECT_NAME":"SATELIOT_2","OBJECT_ID":"2024-149BU","EPOCH":"2026-03-04T03:49:12.122976","MEAN_MOTION":14.9590985,"ECCENTRICITY":0.0002127,"INCLINATION":97.6902,"RA_OF_ASC_NODE":140.0332,"ARG_OF_PERICENTER":95.5951,"MEAN_ANOMALY":264.5513,"EPHEMERIS_TYPE":0,"CLASSIFICATION_TYPE":"U","NORAD_CAT_ID":60534,"ELEMENT_SET_NO":999,"REV_AT_EPOCH":8426,"BSTAR":0.00034277,"MEAN_MOTION_DOT":3.779e-5,"MEAN_MOTION_DDOT":0},{"OBJECT_NAME":"NIGHTJAR","OBJECT_ID":"2024-149BV","EPOCH":"2026-03-04T04:04:05.505024","MEAN_MOTION":14.98344176,"ECCENTRICITY":0.000267,"INCLINATION":97.693,"RA_OF_ASC_NODE":141.3602,"ARG_OF_PERICENTER":95.3307,"MEAN_ANOMALY":264.822,"EPHEMERIS_TYPE":0,"CLASSIFICATION_TYPE":"U","NORAD_CAT_ID":60535,"ELEMENT_SET_NO":999,"REV_AT_EPOCH":12714,"BSTAR":0.00051632,"MEAN_MOTION_DOT":6.095e-5,"MEAN_MOTION_DDOT":0},{"OBJECT_NAME":"LEMUR-2-MARHISYAM","OBJECT_ID":"2024-149BW","EPOCH":"2026-03-04T04:04:47.264736","MEAN_MOTION":15.08833954,"ECCENTRICITY":0.0003239,"INCLINATION":97.693,"RA_OF_ASC_NODE":145.6832,"ARG_OF_PERICENTER":120.6828,"MEAN_ANOMALY":239.472,"EPHEMERIS_TYPE":0,"CLASSIFICATION_TYPE":"U","NORAD_CAT_ID":60536,"ELEMENT_SET_NO":999,"REV_AT_EPOCH":8463,"BSTAR":0.0012125,"MEAN_MOTION_DOT":0.00019057,"MEAN_MOTION_DDOT":0},{"OBJECT_NAME":"SATELIOT_4","OBJECT_ID":"2024-149BX","EPOCH":"2026-03-04T04:35:54.219264","MEAN_MOTION":14.96223158,"ECCENTRICITY":0.0002698,"INCLINATION":97.6804,"RA_OF_ASC_NODE":139.664,"ARG_OF_PERICENTER":51.6306,"MEAN_ANOMALY":308.5158,"EPHEMERIS_TYPE":0,"CLASSIFICATION_TYPE":"U","NORAD_CAT_ID":60537,"ELEMENT_SET_NO":999,"REV_AT_EPOCH":8427,"BSTAR":0.00026952,"MEAN_MOTION_DOT":2.983e-5,"MEAN_MOTION_DDOT":0},{"OBJECT_NAME":"PICO-02A021","OBJECT_ID":"2024-149BY","EPOCH":"2026-03-04T03:47:28.530240","MEAN_MOTION":15.02118695,"ECCENTRICITY":0.0004403,"INCLINATION":97.6841,"RA_OF_ASC_NODE":142.9584,"ARG_OF_PERICENTER":19.561,"MEAN_ANOMALY":340.5783,"EPHEMERIS_TYPE":0,"CLASSIFICATION_TYPE":"U","NORAD_CAT_ID":60538,"ELEMENT_SET_NO":999,"REV_AT_EPOCH":8396,"BSTAR":0.00071285,"MEAN_MOTION_DOT":9.319e-5,"MEAN_MOTION_DDOT":0},{"OBJECT_NAME":"ICEYE-X43","OBJECT_ID":"2024-149BZ","EPOCH":"2026-03-04T03:16:03.751392","MEAN_MOTION":14.99283721,"ECCENTRICITY":0.000259,"INCLINATION":97.6839,"RA_OF_ASC_NODE":141.5257,"ARG_OF_PERICENTER":65.248,"MEAN_ANOMALY":294.9012,"EPHEMERIS_TYPE":0,"CLASSIFICATION_TYPE":"U","NORAD_CAT_ID":60539,"ELEMENT_SET_NO":999,"REV_AT_EPOCH":8437,"BSTAR":0.00041376,"MEAN_MOTION_DOT":4.993e-5,"MEAN_MOTION_DDOT":0},{"OBJECT_NAME":"HAWK-10A","OBJECT_ID":"2024-149CA","EPOCH":"2026-03-04T04:21:59.749056","MEAN_MOTION":14.96151956,"ECCENTRICITY":0.0004886,"INCLINATION":97.6969,"RA_OF_ASC_NODE":140.8966,"ARG_OF_PERICENTER":71.9118,"MEAN_ANOMALY":288.2635,"EPHEMERIS_TYPE":0,"CLASSIFICATION_TYPE":"U","NORAD_CAT_ID":60540,"ELEMENT_SET_NO":999,"REV_AT_EPOCH":8428,"BSTAR":0.000201,"MEAN_MOTION_DOT":2.206e-5,"MEAN_MOTION_DDOT":0},{"OBJECT_NAME":"UMBRA-09","OBJECT_ID":"2024-149CB","EPOCH":"2026-03-04T03:30:52.615584","MEAN_MOTION":15.14529796,"ECCENTRICITY":8.5e-5,"INCLINATION":97.7006,"RA_OF_ASC_NODE":148.8255,"ARG_OF_PERICENTER":248.4671,"MEAN_ANOMALY":111.647,"EPHEMERIS_TYPE":0,"CLASSIFICATION_TYPE":"U","NORAD_CAT_ID":60541,"ELEMENT_SET_NO":999,"REV_AT_EPOCH":8480,"BSTAR":0.0015736,"MEAN_MOTION_DOT":0.00029021,"MEAN_MOTION_DDOT":0},{"OBJECT_NAME":"QPS-SAR-8 (AMATERU-IV)","OBJECT_ID":"2024-149CC","EPOCH":"2026-03-04T04:16:49.204128","MEAN_MOTION":15.02927004,"ECCENTRICITY":0.0004005,"INCLINATION":97.6703,"RA_OF_ASC_NODE":143.2793,"ARG_OF_PERICENTER":107.4036,"MEAN_ANOMALY":252.7627,"EPHEMERIS_TYPE":0,"CLASSIFICATION_TYPE":"U","NORAD_CAT_ID":60542,"ELEMENT_SET_NO":999,"REV_AT_EPOCH":8449,"BSTAR":0.00073253,"MEAN_MOTION_DOT":9.786e-5,"MEAN_MOTION_DDOT":0},{"OBJECT_NAME":"ARCTIC WEATHER SATELLITE","OBJECT_ID":"2024-149CD","EPOCH":"2026-03-04T04:12:22.090752","MEAN_MOTION":14.89806876,"ECCENTRICITY":0.0003621,"INCLINATION":97.689,"RA_OF_ASC_NODE":136.6031,"ARG_OF_PERICENTER":98.0773,"MEAN_ANOMALY":262.0855,"EPHEMERIS_TYPE":0,"CLASSIFICATION_TYPE":"U","NORAD_CAT_ID":60543,"ELEMENT_SET_NO":999,"REV_AT_EPOCH":8366,"BSTAR":0.0001521,"MEAN_MOTION_DOT":1.406e-5,"MEAN_MOTION_DDOT":0},{"OBJECT_NAME":"CAPELLA-15 (ACADIA-5)","OBJECT_ID":"2024-149CE","EPOCH":"2026-03-04T04:39:45.589824","MEAN_MOTION":14.92437074,"ECCENTRICITY":0.0004198,"INCLINATION":97.685,"RA_OF_ASC_NODE":138.6793,"ARG_OF_PERICENTER":83.1524,"MEAN_ANOMALY":277.0173,"EPHEMERIS_TYPE":0,"CLASSIFICATION_TYPE":"U","NORAD_CAT_ID":60544,"ELEMENT_SET_NO":999,"REV_AT_EPOCH":8419,"BSTAR":0.00040251,"MEAN_MOTION_DOT":4.071e-5,"MEAN_MOTION_DDOT":0},{"OBJECT_NAME":"HAWK-10B","OBJECT_ID":"2024-149CF","EPOCH":"2026-03-04T02:45:30.064320","MEAN_MOTION":14.96150967,"ECCENTRICITY":0.0006825,"INCLINATION":97.6892,"RA_OF_ASC_NODE":140.2901,"ARG_OF_PERICENTER":86.2108,"MEAN_ANOMALY":273.9894,"EPHEMERIS_TYPE":0,"CLASSIFICATION_TYPE":"U","NORAD_CAT_ID":60545,"ELEMENT_SET_NO":999,"REV_AT_EPOCH":8427,"BSTAR":0.00019425,"MEAN_MOTION_DOT":2.131e-5,"MEAN_MOTION_DDOT":0},{"OBJECT_NAME":"ICEYE-X39","OBJECT_ID":"2024-149CG","EPOCH":"2026-03-04T04:20:18.222144","MEAN_MOTION":14.99181781,"ECCENTRICITY":0.0005958,"INCLINATION":97.6884,"RA_OF_ASC_NODE":141.6299,"ARG_OF_PERICENTER":70.7035,"MEAN_ANOMALY":289.4832,"EPHEMERIS_TYPE":0,"CLASSIFICATION_TYPE":"U","NORAD_CAT_ID":60546,"ELEMENT_SET_NO":999,"REV_AT_EPOCH":8438,"BSTAR":0.00040767,"MEAN_MOTION_DOT":4.907e-5,"MEAN_MOTION_DDOT":0},{"OBJECT_NAME":"UMBRA-10","OBJECT_ID":"2024-149CH","EPOCH":"2026-03-04T03:30:14.641920","MEAN_MOTION":15.14512491,"ECCENTRICITY":3.33e-5,"INCLINATION":97.7006,"RA_OF_ASC_NODE":148.8448,"ARG_OF_PERICENTER":90.1759,"MEAN_ANOMALY":269.951,"EPHEMERIS_TYPE":0,"CLASSIFICATION_TYPE":"U","NORAD_CAT_ID":60547,"ELEMENT_SET_NO":999,"REV_AT_EPOCH":8481,"BSTAR":0.0015215,"MEAN_MOTION_DOT":0.0002804,"MEAN_MOTION_DDOT":0},{"OBJECT_NAME":"ICEYE-X33","OBJECT_ID":"2024-149CJ","EPOCH":"2026-03-04T04:17:04.763904","MEAN_MOTION":15.01063814,"ECCENTRICITY":0.000619,"INCLINATION":97.7043,"RA_OF_ASC_NODE":143.0647,"ARG_OF_PERICENTER":137.1491,"MEAN_ANOMALY":223.0217,"EPHEMERIS_TYPE":0,"CLASSIFICATION_TYPE":"U","NORAD_CAT_ID":60548,"ELEMENT_SET_NO":999,"REV_AT_EPOCH":8445,"BSTAR":0.0005545,"MEAN_MOTION_DOT":7.036e-5,"MEAN_MOTION_DDOT":0}]
