LEMU NGE                
1 60532U 24149BS  26063.15084153  .00004184  00000+0  39312-3 0  9997
2 60532  97.6914 140.2396 0001822  64.7225 295.4184 14.94461096 84265
LEMUR-2-STELLA          
1 60533U 24149BT  26063.15784870  .00020314  00000+0  12764-2 0  9995
2 60533  97.6789 145.3370 0001621  95.3072 264.8342 15.09284125 84642
SATELIOT_2              
1 60534U 24149BU  26063.15916809  .00003779  00000+0  34277-3 0  9995
2 60534  97.6902 140.0332 0002127  95.5951 264.5513 14.95909850 84268
NIGHTJAR                
1 60535U 24149BV  26063.16950816  .00006095  00000+0  51632-3 0  9991
2 60535  97.6930 141.3602 0002670  95.3307 264.8220 14.98344176127140
LEMUR-2-MARHISYAM       
1 60536U 24149BW  26063.16999149  .00019057  00000+0  12125-2 0  9999
2 60536  97.6930 145.6832 0003239 120.6828 239.4720 15.08833954 84633
SATELIOT_4              
1 60537U 24149BX  26063.19159976  .00002983  00000+0  26952-3 0  9993
2 60537  97.6804 139.6640 0002698  51.6306 308.5158 14.96223158 84274
PICO-02A021             
1 60538U 24149BY  26063.15796910  .00009319  00000+0  71285-3 0  9994
2 60538  97.6841 142.9584 0004403  19.5610 340.5783 15.02118695 83969
ICEYE-X43               
1 60539U 24149BZ  26063.13615453  .00004993  00000+0  41376-3 0  9996
2 60539  97.6839 141.5257 0002590  65.2480 294.9012 14.99283721 84378
HAWK-10A                
1 60540U 24149CA  26063.18194154  .00002206  00000+0  20100-3 0  9990
2 60540  97.6969 140.8966 0004886  71.9118 288.2635 14.96151956 84283
UMBRA-09                
1 60541U 24149CB  26063.14644231  .00029021  00000+0  15736-2 0  9995
2 60541  97.7006 148.8255 0000850 248.4671 111.6470 15.14529796 84804
QPS-SAR-8 (AMATERU-IV)  
1 60542U 24149CC  26063.17834727  .00009786  00000+0  73253-3 0  9995
2 60542  97.6703 143.2793 0004005 107.4036 252.7627 15.02927004 84496
ARCTIC WEATHER SATELLITE
1 60543U 24149CD  26063.17525568  .00001406  00000+0  15210-3 0  9996
2 60543  97.6890 136.6031 0003621  98.0773 262.0855 14.89806876 83663
CAPELLA-15 (ACADIA-5)   
1 60544U 24149CE  26063.19427766  .00004071  00000+0  40251-3 0  9994
2 60544  97.6850 138.6793 0004198  83.1524 277.0173 14.92437074 84198
HAWK-10B                
1 60545U 24149CF  26063.11493130  .00002131  00000+0  19425-3 0  9999
2 60545  97.6892 140.2901 0006825  86.2108 273.9894 14.96150967 84277
ICEYE-X39               
1 60546U 24149CG  26063.18076646  .00004907  00000+0  40767-3 0  9992
2 60546  97.6884 141.6299 0005958  70.7035 289.4832 14.99181781 84384
UMBRA-10                
1 60547U 24149CH  26063.14600280  .00028040  00000+0  15215-2 0  9999
2 60547  97.7006 148.8448 0000333  90.1759 269.9510 15.14512491 84816
ICEYE-X33               
1 60548U 24149CJ  26063.17852736  .00007036  00000+0  55450-3 0  9996
2 60548  97.7043 143.0647 0006190 137.1491 223.0217 15.01063814 84459
